GLOBALSTAR M063         
1 26081U 00008A   24146.46874071 -.00000085  00000+0 -32176-4 0  9996
2 26081  51.9973  52.6675 0004248 297.9939 233.1267 11.86155702111564
GLOBALSTAR M062         
1 26082U 00008B   24147.42001852 -.00000066  00000+0  23129-3 0  9998
2 26082  51.9818 153.1205 0007094   6.0923 141.9576 12.43436858111009
GLOBALSTAR M060         
1 26083U 00008C   24147.20902376 -.00000155  00000+0 -63829-3 0  9997
2 26083  52.0035  59.0002 0003898  56.3944 109.6805 12.17632812105403
GLOBALSTAR M064         
1 26084U 00008D   24147.19920840 -.00000079  00000+0  62935-4 0  9994
2 26084  51.9999 154.1367 0001383  24.2434 335.8463 11.88519650121195
GLOBALSTAR M065         
1 31571U 07020A   24146.76111465 -.00000067  00000+0  20290-3 0  9993
2 31571  51.9908 325.4308 0010360 166.3516 207.3226 12.61971411784794
GLOBALSTAR M069         
1 31573U 07020C   24146.68147249 -.00000062  00000+0  23267-3 0  9997
2 31573  51.9958 281.5285 0000923 132.6772 240.3651 12.62273788785547
GLOBALSTAR M072         
1 31574U 07020D   24146.39513639 -.00000073  00000+0  17357-3 0  9991
2 31574  52.0107  18.3159 0000980  75.8207  95.3704 12.62263577783849
GLOBALSTAR M071         
1 31576U 07020F   24146.56395292 -.00000065  00000+0  21863-3 0  9993
2 31576  52.0074 287.0345 0000725  93.2089 345.1216 12.62266687446783
